NORAD_CAT_ID,OBJECT_NAME,OBJECT_TYPE,EPOCH,MEAN_MOTION,ECCENTRICITY,INCLINATION,RA_OF_ASC_NODE,ARG_OF_PERICENTER,MEAN_ANOMALY,BSTAR,MEAN_MOTION_DOT,MEAN_MOTION_DDOT,TLE_LINE0,TLE_LINE1,TLE_LINE2,SEMIMAJOR_AXIS,PERIOD,APOGEE,PERIGEE,DECAYED
53014.0,STARLINK-4183,PAYLOAD,2022-10-01 22:00:00,15.17817467,0.0001771,53.2174,317.1724,39.6439,222.1626,-0.056507,-0.01072349,0.0,0 STARLINK-4183,1 53014U 22076AE  22274.91667824 -.01072349  00000-0 -56507-1 0  9992,2 53014  53.2174 317.1724 0001771  39.6439 222.1626 15.17817467 14027,6890.575,94.873,513.661,511.22,0.0
53014.0,STARLINK-4183,PAYLOAD,2022-10-02 14:00:01,15.1630772,0.0001781,53.2168,314.1372,40.2871,264.4483,-0.05972,-0.01084173,0.0,0 STARLINK-4183,1 53014U 22076AE  22275.58334491 -.01084173  00000-0 -59720-1 0  9995,2 53014  53.2168 314.1372 0001781  40.2871 264.4483 15.16307720  1307,6895.148,94.968,518.241,515.785,0.0
53014.0,STARLINK-4183,PAYLOAD,2022-10-02 22:00:00,15.15554143,0.000171,53.2172,312.6184,26.1579,298.6759,-0.061633,-0.01094216,0.0,0 STARLINK-4183,1 53014U 22076AE  22275.91667824 -.01094216  00000-0 -61633-1 0  9996,2 53014  53.2172 312.6184 0001710  26.1579 298.6759 15.15554143  1303,6897.434,95.015,520.4780000000002,518.119,0.0
53014.0,STARLINK-4183,PAYLOAD,2022-10-03 14:00:01,15.14060763,0.0001429,53.2169,309.5927,43.2178,319.0611,-0.066459,-0.01127992,0.0,0 STARLINK-4183,1 53014U 22076AE  22276.58334491 -.01127992  00000-0 -66459-1 0  9990,2 53014  53.2169 309.5927 0001429  43.2178 319.0611 15.14060763  1305,6901.968000000003,95.108,524.82,522.847,0.0
53014.0,STARLINK-4183,PAYLOAD,2022-10-03 22:00:00,15.13259544,0.0001443,53.2174,308.0776,48.404,331.2589,-0.064269,-0.01070847,0.0,0 STARLINK-4183,1 53014U 22076AE  22276.91667824 -.01070847  00000-0 -64269-1 0  9999,2 53014  53.2174 308.0776 0001443  48.4040 331.2589 15.13259544  1304,6904.404,95.159,527.266,525.273,0.0
53014.0,STARLINK-4183,PAYLOAD,2022-10-04 06:00:00,15.12507214,0.0001376999999999,53.2173,306.5708,59.7625,336.3436,-0.066314,-0.01080964,0.0,0 STARLINK-4183,1 53014U 22076AE  22277.25001157 -.01080964  00000-0 -66314-1 0  9992,2 53014  53.2173 306.5708 0001377  59.7625 336.3436 15.12507214 14378,6906.694,95.206,529.51,527.6080000000002,0.0
53014.0,STARLINK-4183,PAYLOAD,2022-10-04 14:00:01,15.11748392,0.0001631,53.2169,305.0639,45.5466,6.0939,-0.067733,-0.0108091,0.0,0 STARLINK-4183,1 53014U 22076AE  22277.58334491 -.01080910  00000-0 -67733-1 0  9995,2 53014  53.2169 305.0639 0001631  45.5466   6.0939 15.11748392  1300,6909.005,95.254,531.997,529.743,0.0
53014.0,STARLINK-4183,PAYLOAD,2022-10-04 22:00:00,15.10981483,0.0001538,53.2174,303.5541,47.2202,19.0496,-0.068549,-0.01071486,0.0,0 STARLINK-4183,1 53014U 22076AE  22277.91667824 -.01071486  00000-0 -68549-1 0  9995,2 53014  53.2174 303.5541 0001538  47.2202  19.0496 15.10981483  1305,6911.342,95.302,534.27,532.144,0.0
53014.0,STARLINK-4183,PAYLOAD,2022-10-05 08:00:01,15.10024864,0.0001747,53.2174,301.6763,54.249,119.0161,-0.06931,-0.01056188,0.0,0 STARLINK-4183,1 53014U 22076AE  22278.33334491 -.01056188  00000-0 -69310-1 0  9992,2 53014  53.2174 301.6763 0001747  54.2490 119.0161 15.10024864 14540,6914.261,95.363,537.3340000000002,534.918,0.0
53014.0,STARLINK-4183,PAYLOAD,2022-10-05 14:00:01,15.0933957,0.0001573,53.2171,300.5522,63.2403,29.6128,-0.038161,-0.00575583,0.0,0 STARLINK-4183,1 53014U 22076AE  22278.58335648 -.00575583  00000-0 -38161-1 0  9998,2 53014  53.2171 300.5522 0001573  63.2403  29.6128 15.09339570  1309,6916.354,95.406,539.307,537.131,0.0
53014.0,STARLINK-4183,PAYLOAD,2022-10-05 22:00:00,15.08833692,0.0001481,53.2174,299.0514,64.7727,39.9793,0.00022553,3.303e-05,0.0,0 STARLINK-4183,1 53014U 22076AE  22278.91667824  .00003303  00000-0  22553-3 0  9993,2 53014  53.2174 299.0514 0001481  64.7727  39.9793 15.08833692  1303,6917.9,95.438,540.789,538.74,0.0
53014.0,STARLINK-4183,PAYLOAD,2022-10-06 14:00:01,15.08871123,0.0001742,53.2138,296.0712,55.0633,72.7469,-0.0016912,-0.00027126,0.0,0 STARLINK-4183,1 53014U 22076AE  22279.58334491 -.00027126  00000-0 -16912-2 0  9990,2 53014  53.2138 296.0712 0001742  55.0633  72.7469 15.08871123  1305,6917.785,95.436,540.855,538.445,0.0
53014.0,STARLINK-4183,PAYLOAD,2022-10-06 22:42:55,15.08803578,0.0001503,53.2136,294.4392,62.1924,239.167,0.0039288,0.00062733,0.0,0 STARLINK-4183,1 53014U 22076AE  22279.94646991  .00062733  00000-0  39288-2 0  9993,2 53014  53.2136 294.4392 0001503  62.1924 239.1670 15.08803578  1308,6917.9919999999975,95.44,540.896,538.817,0.0
53014.0,STARLINK-4183,PAYLOAD,2022-10-07 00:00:00,15.08817075,0.0001506999999999,53.2137,294.1989,63.2468,169.0918,0.0029518,0.00046974,0.0,0 STARLINK-4183,1 53014U 22076AE  22280.00001157  .00046974  00000-0  29518-2 0  9995,2 53014  53.2137 294.1989 0001507  63.2468 169.0918 15.08817075 14797,6917.95,95.439,540.8580000000002,538.773,0.0
53014.0,STARLINK-4183,PAYLOAD,2022-10-07 14:00:01,15.08854574,0.0001644,53.2131,291.5816,53.7098,108.9081,0.00010366,1.363e-05,0.0,0 STARLINK-4183,1 53014U 22076AE  22280.58334491  .00001363  00000-0  10366-3 0  9993,2 53014  53.2131 291.5816 0001644  53.7098 108.9081 15.08854574  1307,6917.8359999999975,95.437,540.8380000000002,538.564,0.0
53014.0,STARLINK-4183,PAYLOAD,2022-10-07 22:00:00,15.08832154,0.0001494,53.2131,290.0833,61.0557,113.1937,0.0019077999999999,0.00030199,0.0,0 STARLINK-4183,1 53014U 22076AE  22280.91667824  .00030199  00000-0  19078-2 0  9996,2 53014  53.2131 290.0833 0001494  61.0557 113.1937 15.08832154  1303,6917.904,95.438,540.803,538.736,0.0
53014.0,STARLINK-4183,PAYLOAD,2022-10-08 14:00:01,15.08841409,0.0001716,53.213,287.0917,55.5418,141.8961,0.0004843999999999,7.43e-05,0.0,0 STARLINK-4183,1 53014U 22076AE  22281.58334491  .00007430  00000-0  48440-3 0  9999,2 53014  53.2130 287.0917 0001716  55.5418 141.8961 15.08841409  1300,6917.876,95.437,540.928,538.554,0.0
53014.0,STARLINK-4183,PAYLOAD,2022-10-08 22:00:00,15.08834822,0.0001579,53.2131,285.5934,62.1612,146.8825,0.00057754,8.914e-05,0.0,0 STARLINK-4183,1 53014U 22076AE  22281.91667824  .00008914  00000-0  57754-3 0  9991,2 53014  53.2131 285.5934 0001579  62.1612 146.8825 15.08834822  1305,6917.896,95.438,540.854,538.669,0.0
53014.0,STARLINK-4183,PAYLOAD,2022-10-09 14:00:01,15.08839662,0.0001604,53.2134,282.6017,53.0912,179.1326,0.00026898,3.995e-05,0.0,0 STARLINK-4183,1 53014U 22076AE  22282.58334491  .00003995  00000-0  26898-3 0  9995,2 53014  53.2134 282.6017 0001604  53.0912 179.1326 15.08839662 15182,6917.880999999999,95.438,540.856,538.637,0.0
53014.0,STARLINK-4183,PAYLOAD,2022-10-09 22:00:00,15.08850086,0.0001754,53.2168,281.0961,55.7764,188.0735,-0.0014424,-0.00023177,0.0,0 STARLINK-4183,1 53014U 22076AE  22282.91667824 -.00023177  00000-0 -14424-2 0  9998,2 53014  53.2168 281.0961 0001754  55.7764 188.0735 15.08850086  1305,6917.85,95.437,540.928,538.501,0.0
53014.0,STARLINK-4183,PAYLOAD,2022-10-10 14:00:01,15.08838383,0.0001823,53.2172,278.1032,53.4953,213.5447,-0.00021346,-3.684e-05,0.0,0 STARLINK-4183,1 53014U 22076AE  22283.58334491 -.00003684  00000-0 -21346-3 0  9996,2 53014  53.2172 278.1032 0001823  53.4953 213.5447 15.08838383  1308,6917.885,95.438,541.011,538.489,0.0
53014.0,STARLINK-4183,PAYLOAD,2022-10-10 22:00:01,15.08870544,0.0001545,53.2156,276.6092,61.7761,216.9373,-0.0058818,-0.00092771,0.0,0 STARLINK-4183,1 53014U 22076AE  22283.91668981 -.00092771  00000-0 -58818-2 0  9995,2 53014  53.2156 276.6092 0001545  61.7761 216.9373 15.08870544  1309,6917.7869999999975,95.436,540.721,538.5830000000002,0.0
53014.0,STARLINK-4183,PAYLOAD,2022-10-11 06:00:00,15.08833582,0.0001764999999999,53.2149,275.1179,59.3852,230.8572,-0.0024019,-0.00038305,0.0,0 STARLINK-4183,1 53014U 22076AE  22284.25001157 -.00038305  00000-0 -24019-2 0  9998,2 53014  53.2149 275.1179 0001765  59.3852 230.8572 15.08833582 15435,6917.9,95.438,540.986,538.544,0.0
53014.0,STARLINK-4183,PAYLOAD,2022-10-11 14:00:01,15.08780886,0.0001509,53.2164,273.6154,61.7514,240.0935,0.005446,0.00087319,0.0,0 STARLINK-4183,1 53014U 22076AE  22284.58334491  .00087319  00000-0  54460-2 0  9994,2 53014  53.2164 273.6154 0001509  61.7514 240.0935 15.08780886 15485,6918.061,95.441,540.97,538.882,0.0
53014.0,STARLINK-4183,PAYLOAD,2022-10-11 22:00:00,15.08811169,0.0001585,53.2148,272.1241,66.5455,246.8386,0.0034108,0.00054371,0.0,0 STARLINK-4183,1 53014U 22076AE  22284.91667824  .00054371  00000-0  34108-2 0  9999,2 53014  53.2148 272.1241 0001585  66.5455 246.8386 15.08811169 15538,6917.969,95.439,540.93,538.737,0.0
53014.0,STARLINK-4183,PAYLOAD,2022-10-12 14:00:01,15.0885182,0.0001674,53.2155,269.1291,57.1003,279.4785,-0.0010967,-0.00017705,0.0,0 STARLINK-4183,1 53014U 22076AE  22285.58334491 -.00017705  00000-0 -10967-2 0  9993,2 53014  53.2155 269.1291 0001674  57.1003 279.4785 15.08851820  1304,6917.844,95.437,540.867,538.5509999999998,0.0
53014.0,STARLINK-4183,PAYLOAD,2022-10-12 22:00:00,15.08837236,0.0001706999999999,53.2168,267.6287,62.3063,285.879,6.6199e-06,-1.83e-06,0.0,0 STARLINK-4183,1 53014U 22076AE  22285.91667824 -.00000183  00000-0  66199-5 0  9991,2 53014  53.2168 267.6287 0001707  62.3063 285.8790 15.08837236  1309,6917.889,95.438,540.935,538.573,0.0
53014.0,STARLINK-4183,PAYLOAD,2022-10-13 14:00:01,15.08887903,0.0001536,53.2164,264.6375,64.9085,306.4296,-0.0044737,-0.00070879,0.0,0 STARLINK-4183,1 53014U 22076AE  22286.58334491 -.00070879  00000-0 -44737-2 0  9997,2 53014  53.2164 264.6375 0001536  64.9085 306.4296 15.08887903  1309,6917.734,95.435,540.6619999999998,538.536,0.0
53014.0,STARLINK-4183,PAYLOAD,2022-10-13 20:00:01,15.08834818,0.0001409,53.2173,263.5121,71.9877,218.1418,0.00017878,2.558e-05,0.0,0 STARLINK-4183,1 53014U 22076AE  22286.83335648  .00002558  00000-0  17878-3 0  9994,2 53014  53.2173 263.5121 0001409  71.9877 218.1418 15.08834818 15826,6917.896,95.438,540.736,538.786,0.0
